STARLINK-30900          
1 58423U 23180X   26068.01068911 -.00003255  00000+0 -10881-3 0  9991
2 58423  43.0002  56.1942 0001163 267.6681  92.4038 15.27578512127411
TRANSPORTER-13 OBJECT AH
1 63241U 25052AH  26068.64880921  .00014108  00000+0  55931-3 0  9999
2 63241  97.3962 323.1443 0008070 138.7508 221.4341 15.25468797 54753
